[{"OBJECT_NAME":"SITRO-AIS 8 (ANOKHIN)","OBJECT_ID":"2023-091AD","EPOCH":"2026-03-09T23:44:40.058592","MEAN_MOTION":15.29359179,"ECCENTRICITY":0.0012509,"INCLINATION":97.5169,"RA_OF_ASC_NODE":133.2823,"ARG_OF_PERICENTER":92.0171,"MEAN_ANOMALY":268.2501,"EPHEMERIS_TYPE":0,"CLASSIFICATION_TYPE":"U","NORAD_CAT_ID":57193,"ELEMENT_SET_NO":999,"REV_AT_EPOCH":14927,"BSTAR":0.00064982524,"MEAN_MOTION_DOT":0.00018494,"MEAN_MOTION_DDOT":0},{"OBJECT_NAME":"STARLINK-32271","OBJECT_ID":"2024-138P","EPOCH":"2026-03-09T22:49:43.147776","MEAN_MOTION":15.30185549,"ECCENTRICITY":0.00013216,"INCLINATION":53.1612,"RA_OF_ASC_NODE":308.678,"ARG_OF_PERICENTER":95.9089,"MEAN_ANOMALY":264.2063,"EPHEMERIS_TYPE":0,"CLASSIFICATION_TYPE":"U","NORAD_CAT_ID":60368,"ELEMENT_SET_NO":999,"REV_AT_EPOCH":9066,"BSTAR":8.7564367e-5,"MEAN_MOTION_DOT":2.234e-5,"MEAN_MOTION_DDOT":0}]
